*******************************************************************************
Ephemeris / WWW_USER Fri Mar  7 10:52:34 2025 Pasadena, USA      / Horizons    
*******************************************************************************
Target body name: (2018 SL3)                      {source: JPL#9}
Center body name: Earth (399)                     {source: DE441}
Center-site name: Mauna Kea
*******************************************************************************
Start time      : A.D. 2018-Nov-28 03:51:00.0000 UT      
Stop  time      : A.D. 2018-Nov-28 16:28:00.0000 UT      
Step-size       : 1 minutes
*******************************************************************************
Target pole/equ : undefined
Target radii    : undefined                                                    
Center geodetic : 204.5278, 19.8260847, 4.21024   {E-lon(deg),Lat(deg),Alt(km)}
Center cylindric: 204.5278, 6006.35451, 2151.0229 {E-lon(deg),Dxy(km),Dz(km)}
Center pole/equ : ITRF93                          {East-longitude positive}
Center radii    : 6378.137, 6378.137, 6356.752 km {Equator_a, b, pole_c}       
Target primary  : Sun
Vis. interferer : MOON (R_eq= 1737.400) km        {source: DE441}
Rel. light bend : Sun                             {source: DE441}
Rel. lght bnd GM: 1.3271E+11 km^3/s^2                                          
Small-body perts: Yes                             {source: SB441-N16}
Atmos refraction: NO (AIRLESS)
RA format       : HMS
Time format     : CAL 
Calendar mode   : Mixed Julian/Gregorian
RTS-only print  : NO       
EOP file        : eop.250306.p250602                                           
EOP coverage    : DATA-BASED 1962-JAN-20 TO 2025-MAR-06. PREDICTS-> 2025-JUN-01
Units conversion: 1 au= 149597870.700 km, c= 299792.458 km/s, 1 day= 86400.0 s 
Table cut-offs 1: Elevation (-90.0deg=NO ),Airmass (>38.000=NO), Daylight (YES)
Table cut-offs 2: Solar elongation (  0.0,180.0=NO ),Local Hour Angle( 0.0=NO )
Table cut-offs 3: RA/DEC angular rate (     0.0=NO )                           
*******************************************************************************
Initial IAU76/J2000 heliocentric ecliptic osculating elements (au, days, deg.):
  EPOCH=  2458395.5 ! 2018-Oct-04.00 (TDB)         Residual RMS= .22865        
   EC= .523832704749462    QR= .7523817427125933   TP= 2458455.4342692108      
   OM= 5.37828463666876    W=  89.37669799750542   IN= 4.07069530013935        
  Equivalent ICRF heliocentric cartesian coordinates (au, au/d):
   X= 1.077301312774806E+00  Y= 1.718701187822678E-01  Z= 8.135917115484240E-02
  VX=-1.117713770282307E-02 VY= 1.338322199759621E-02 VZ= 7.048365308861806E-03
Asteroid physical parameters (km, seconds, rotational period in hours):        
   GM= n.a.                RAD= n.a.               ROTPER= n.a.                
   H= 24.5                 G= .150                 B-V= n.a.                   
                           ALBEDO= n.a.            STYP= n.a.                  
*******************************************************************************
 Date__(UT)__HR:MN     R.A._________(ICRF)_________DEC
******************************************************
$$SOE
 2018-Nov-28 16:09 Nm  13 35 41.488592 -01 39 29.31236
 2018-Nov-28 16:10 Nm  13 35 41.540309 -01 39 30.12641
 2018-Nov-28 16:11 Nm  13 35 41.592007 -01 39 30.94045
 2018-Nov-28 16:12 Nm  13 35 41.643687 -01 39 31.75449
 2018-Nov-28 16:13 Nm  13 35 41.695348 -01 39 32.56852
 2018-Nov-28 16:14 Nm  13 35 41.746990 -01 39 33.38255
 2018-Nov-28 16:15 Cm  13 35 41.798615 -01 39 34.19658
 2018-Nov-28 16:16 Cm  13 35 41.850221 -01 39 35.01060
 2018-Nov-28 16:17 Cm  13 35 41.901810 -01 39 35.82461
 2018-Nov-28 16:18 Cm  13 35 41.953380 -01 39 36.63862
 2018-Nov-28 16:19 Cm  13 35 42.004932 -01 39 37.45263
 2018-Nov-28 16:20 Cm  13 35 42.056466 -01 39 38.26663
 2018-Nov-28 16:21 Cm  13 35 42.107983 -01 39 39.08062
 2018-Nov-28 16:22 Cm  13 35 42.159482 -01 39 39.89461
 2018-Nov-28 16:23 Cm  13 35 42.210963 -01 39 40.70860
 2018-Nov-28 16:24 Cm  13 35 42.262427 -01 39 41.52258
 2018-Nov-28 16:25 Cm  13 35 42.313873 -01 39 42.33655
 2018-Nov-28 16:26 Cm  13 35 42.365302 -01 39 43.15052
 2018-Nov-28 16:27 Cm  13 35 42.416714 -01 39 43.96448
 2018-Nov-28 16:28 Cm  13 35 42.468109 -01 39 44.77844
